NORAD_CAT_ID,OBJECT_NAME,OBJECT_TYPE,EPOCH,MEAN_MOTION,ECCENTRICITY,INCLINATION,RA_OF_ASC_NODE,ARG_OF_PERICENTER,MEAN_ANOMALY,BSTAR,MEAN_MOTION_DOT,MEAN_MOTION_DDOT,TLE_LINE0,TLE_LINE1,TLE_LINE2,SEMIMAJOR_AXIS,PERIOD,APOGEE,PERIGEE,DECAYED
55284.0,STARLINK-5337,PAYLOAD,2024-07-01 22:03:36,14.98325582,0.0002959,69.9997,156.8591,268.1791,91.903,0.00015375,1.742e-05,0.0,0 STARLINK-5337,1 55284U 23010R   24183.91917332  .00001742  00000-0  15375-3 0  9991,2 55284  69.9997 156.8591 0002959 268.1791  91.9030 14.98325582 80545,6950.207,96.107,574.128,570.015,0.0
55284.0,STARLINK-5337,PAYLOAD,2024-07-02 04:28:08,14.98328557,0.0002965,69.9997,156.1858,268.094,91.988,0.00017062,1.943e-05,0.0,0 STARLINK-5337,1 55284U 23010R   24184.18621255  .00001943  00000-0  17062-3 0  9995,2 55284  69.9997 156.1858 0002965 268.0940  91.9880 14.98328557 80285,6950.197,96.107,574.123,570.002,0.0
55284.0,STARLINK-5337,PAYLOAD,2024-07-02 07:40:24,14.98335138,0.0002908,69.9999,155.8492,267.4477,92.6349,0.00025008,2.893e-05,0.0,0 STARLINK-5337,1 55284U 23010R   24184.31972730  .00002893  00000-0  25008-3 0  9991,2 55284  69.9999 155.8492 0002908 267.4477  92.6349 14.98335138 80306,6950.177,96.107,574.063,570.021,0.0
55284.0,STARLINK-5337,PAYLOAD,2024-07-02 15:41:05,14.98330264,0.0002811,70.0004,155.0076,269.1086,90.9751,0.00013506,1.519e-05,0.0,0 STARLINK-5337,1 55284U 23010R   24184.65353247  .00001519  00000-0  13506-3 0  9998,2 55284  70.0004 155.0076 0002811 269.1086  90.9751 14.98330264 80352,6950.192,96.107,574.011,570.103,0.0
55284.0,STARLINK-5337,PAYLOAD,2024-07-03 15:43:05,14.98333362,0.0003026,69.9996,152.4819,269.8825,90.1987,4.6685e-06,-3.7e-07,0.0,0 STARLINK-5337,1 55284U 23010R   24185.65493012 -.00000037  00000-0  46685-5 0  9995,2 55284  69.9996 152.4819 0003026 269.8825  90.1987 14.98333362 80504,6950.182,96.107,574.151,569.944,0.0
55284.0,STARLINK-5337,PAYLOAD,2024-07-03 22:07:38,14.9833145,0.0002963,69.9997,151.8089,268.2971,91.7849,4.4062e-05,4.33e-06,0.0,0 STARLINK-5337,1 55284U 23010R   24185.92197122  .00000433  00000-0  44062-4 0  9993,2 55284  69.9997 151.8089 0002963 268.2971  91.7849 14.98331450 80848,6950.188,96.107,574.113,569.994,0.0
55284.0,STARLINK-5337,PAYLOAD,2024-07-04 07:44:26,14.98332939,0.0002885,70.0002,150.7997,267.6757,92.4072,5.6312e-05,5.79e-06,0.0,0 STARLINK-5337,1 55284U 23010R   24186.32252929  .00000579  00000-0  56312-4 0  9997,2 55284  70.0002 150.7997 0002885 267.6757  92.4072 14.98332939 80908,6950.184,96.107,574.054,570.044,0.0
55284.0,STARLINK-5337,PAYLOAD,2024-07-04 22:09:39,14.98330477,0.0002911,70.0001,149.2849,267.7225,92.3601,9.4466e-05,1.034e-05,0.0,0 STARLINK-5337,1 55284U 23010R   24186.92336923  .00001034  00000-0  94466-4 0  9999,2 55284  70.0001 149.2849 0002911 267.7225  92.3601 14.98330477 80998,6950.191,96.107,574.08,570.033,0.0
55284.0,STARLINK-5337,PAYLOAD,2024-07-05 04:34:11,14.98333363,0.0002915,70.0001,148.6118,267.9644,92.1182,0.00011536,1.284e-05,0.0,0 STARLINK-5337,1 55284U 23010R   24187.19040689  .00001284  00000-0  11536-3 0  9993,2 55284  70.0001 148.6118 0002915 267.9644  92.1182 14.98333363 80732,6950.182,96.107,574.073,570.022,0.0
55284.0,STARLINK-5337,PAYLOAD,2024-07-05 14:10:59,14.98329114,0.0002845,70.0003,147.6018,268.7145,91.3688,3.7562e-05,3.55e-06,0.0,0 STARLINK-5337,1 55284U 23010R   24187.59097122  .00000355  00000-0  37562-4 0  9997,2 55284  70.0003 147.6018 0002845 268.7145  91.3688 14.98329114 81090,6950.196,96.107,574.038,570.083,0.0
55284.0,STARLINK-5337,PAYLOAD,2024-07-05 20:35:32,14.98329168,0.0002824,70.0004,146.9288,268.443,91.6406,2.2495e-05,1.75e-06,0.0,0 STARLINK-5337,1 55284U 23010R   24187.85801194  .00000175  00000-0  22495-4 0  9997,2 55284  70.0004 146.9288 0002824 268.4430  91.6406 14.98329168 80834,6950.195,96.107,574.023,570.098,0.0
55284.0,STARLINK-5337,PAYLOAD,2024-07-05 22:11:40,14.98329631,0.0002826,70.0004,146.7604,268.3513,91.7322,2.4679e-05,2.02e-06,0.0,0 STARLINK-5337,1 55284U 23010R   24187.92477149  .00000202  00000-0  24679-4 0  9991,2 55284  70.0004 146.7604 0002826 268.3513  91.7322 14.98329631 81145,6950.194,96.107,574.023,570.095,0.0
55284.0,STARLINK-5337,PAYLOAD,2024-07-06 14:13:00,14.98329232,0.000279,70.0006,145.0776,267.9441,92.1399,1.7851e-05,1.2e-06,0.0,0 STARLINK-5337,1 55284U 23010R   24188.59237115  .00000120  00000-0  17851-4 0  9995,2 55284  70.0006 145.0776 0002790 267.9441  92.1399 14.98329232 81241,6950.195,96.107,573.999,570.121,0.0
55284.0,STARLINK-5337,PAYLOAD,2024-07-06 20:37:33,14.98331609,0.0002781,70.0005,144.4042,269.8003,90.2837,1.3999e-05,7.4e-07,0.0,0 STARLINK-5337,1 55284U 23010R   24188.85941009  .00000074  00000-0  13999-4 0  9995,2 55284  70.0005 144.4042 0002781 269.8003  90.2837 14.98331609 80981,6950.188,96.107,573.986,570.12,0.0
55284.0,STARLINK-5337,PAYLOAD,2024-07-06 22:13:41,14.98331984,0.0002783,70.0005,144.2359,269.4063,90.6777,1.683e-05,1.08e-06,0.0,0 STARLINK-5337,1 55284U 23010R   24188.92616963  .00000108  00000-0  16830-4 0  9996,2 55284  70.0005 144.2359 0002783 269.4063  90.6777 14.98331984 81292,6950.187,96.107,573.986,570.118,0.0
55284.0,STARLINK-5337,PAYLOAD,2024-07-07 06:14:21,14.9833202,0.0002807,70.0005,143.3946,267.2452,92.8385,1.1953e-05,5e-07,0.0,0 STARLINK-5337,1 55284U 23010R   24189.25996907  .00000050  00000-0  11953-4 0  9999,2 55284  70.0005 143.3946 0002807 267.2452  92.8385 14.98332020 81346,6950.187,96.107,574.003,570.101,0.0
55284.0,STARLINK-5337,PAYLOAD,2024-07-08 03:04:05,14.98337988,0.0002814,70.0002,141.206,265.3126,94.7711,0.00014301,1.614e-05,0.0,0 STARLINK-5337,1 55284U 23010R   24190.12784122  .00001614  00000-0  14301-3 0  9997,2 55284  70.0002 141.2060 0002814 265.3126  94.7711 14.98337988 81175,6950.168,96.106,573.989,570.077,0.0
55284.0,STARLINK-5337,PAYLOAD,2024-07-08 06:16:21,14.98344679,0.0002519,70.0007,140.8695,260.0908,99.9966,0.00023028,2.657e-05,0.0,0 STARLINK-5337,1 55284U 23010R   24190.26135434  .00002657  00000-0  23028-3 0  9992,2 55284  70.0007 140.8695 0002519 260.0908  99.9966 14.98344679 81197,6950.147,96.106,573.763,570.262,0.0
55284.0,STARLINK-5337,PAYLOAD,2024-07-08 14:17:02,14.983332,0.0002638,70.0007,140.0274,273.7553,86.3305,4.9101e-05,4.93e-06,0.0,0 STARLINK-5337,1 55284U 23010R   24190.59516543  .00000493  00000-0  49101-4 0  9999,2 55284  70.0007 140.0274 0002638 273.7553  86.3305 14.98333200 81545,6950.183,96.107,573.881,570.215,0.0
55284.0,STARLINK-5337,PAYLOAD,2024-07-08 20:41:34,14.98330856,0.0002506,70.0004,139.3551,272.708,87.3792,4.6073e-05,4.57e-06,0.0,0 STARLINK-5337,1 55284U 23010R   24190.86220734  .00000457  00000-0  46073-4 0  9998,2 55284  70.0004 139.3551 0002506 272.7080  87.3792 14.98330856 81285,6950.19,96.107,573.797,570.314,0.0
55284.0,STARLINK-5337,PAYLOAD,2024-07-08 22:17:42,14.98328795,0.000259,70.0,139.1848,272.0146,88.0717,-3.8146e-06,-1.38e-06,0.0,0 STARLINK-5337,1 55284U 23010R   24190.92896955 -.00000138  00000-0 -38146-5 0  9990,2 55284  70.0000 139.1848 0002590 272.0146  88.0717 14.98328795 81595,6950.197,96.107,573.862,570.262,0.0
55284.0,STARLINK-5337,PAYLOAD,2024-07-09 04:42:15,14.9832271,0.000288,70.0003,138.5122,266.8721,93.2108,-6.5785e-05,-8.78e-06,0.0,0 STARLINK-5337,1 55284U 23010R   24191.19601449 -.00000878  00000-0 -65785-4 0  9991,2 55284  70.0003 138.5122 0002880 266.8721  93.2108 14.98322710 81333,6950.215,96.107,574.082,570.079,0.0
55284.0,STARLINK-5337,PAYLOAD,2024-07-09 14:19:03,14.98318739,0.0002759,70.0004,137.505,263.9276,96.1569,0.00018142,2.072e-05,0.0,0 STARLINK-5337,1 55284U 23010R   24191.59657311  .00002072  00000-0  18142-3 0  9994,2 55284  70.0004 137.5050 0002759 263.9276  96.1569 14.98318739 81699,6950.228,96.108,574.01,570.175,0.0
55284.0,STARLINK-5337,PAYLOAD,2024-07-09 20:43:32,14.9837844,0.0003074,70.0001,136.8293,266.1651,93.9157,0.00031063,3.62e-05,0.0,0 STARLINK-5337,1 55284U 23010R   24191.86356893  .00003620  00000-0  31063-3 0  9992,2 55284  70.0001 136.8293 0003074 266.1651  93.9157 14.98378440 81435,6950.043,96.104,574.045,569.772,0.0
55284.0,STARLINK-5337,PAYLOAD,2024-07-09 22:19:40,14.98379157,0.0003062,70.0001,136.6608,265.8984,94.1825,0.00031599,3.684e-05,0.0,0 STARLINK-5337,1 55284U 23010R   24191.93032663  .00003684  00000-0  31599-3 0  9990,2 55284  70.0001 136.6608 0003062 265.8984  94.1825 14.98379157 81740,6950.041,96.104,574.034,569.778,0.0
55284.0,STARLINK-5337,PAYLOAD,2024-07-10 04:44:16,14.98330181,0.0002958,70.0,135.9879,268.9937,91.0883,-0.00022106,-2.73e-05,0.0,0 STARLINK-5337,1 55284U 23010R   24192.19740794 -.00002730  00000-0 -22106-3 0  9997,2 55284  70.0000 135.9879 0002958 268.9937  91.0883 14.98330181 81481,6950.192,96.107,574.113,570.001,0.0
55284.0,STARLINK-5337,PAYLOAD,2024-07-10 06:20:24,14.98329407,0.0002926,70.0001,135.8197,268.8939,91.1885,-0.00022454,-2.771e-05,0.0,0 STARLINK-5337,1 55284U 23010R   24192.26416851 -.00002771  00000-0 -22454-3 0  9990,2 55284  70.0001 135.8197 0002926 268.8939  91.1885 14.98329407 81796,6950.195,96.107,574.093,570.026,0.0
55284.0,STARLINK-5337,PAYLOAD,2024-07-10 22:21:44,14.9831907,0.0003048,70.0,134.1364,270.1824,89.8986,6.3733e-05,6.67e-06,0.0,0 STARLINK-5337,1 55284U 23010R   24192.93176956  .00000667  00000-0  63733-4 0  9999,2 55284  70.0000 134.1364 0003048 270.1824  89.8986 14.98319070 81890,6950.227,96.108,574.21,569.973,0.0
55284.0,STARLINK-5337,PAYLOAD,2024-07-11 04:46:16,14.98324453,0.0002948,70.0004,133.4652,266.5798,93.5024,9.7451e-05,1.07e-05,0.0,0 STARLINK-5337,1 55284U 23010R   24193.19880738  .00001070  00000-0  97451-4 0  9991,2 55284  70.0004 133.4652 0002948 266.5798  93.5024 14.98324453 81631,6950.21,96.107,574.124,570.026,0.0
55284.0,STARLINK-5337,PAYLOAD,2024-07-11 11:10:49,14.98328886,0.0002998,70.0003,132.7913,267.5705,92.5111,9.6301e-05,1.056e-05,0.0,0 STARLINK-5337,1 55284U 23010R   24193.46584558  .00001056  00000-0  96301-4 0  9999,2 55284  70.0003 132.7913 0002998 267.5705  92.5111 14.98328886 81973,6950.196,96.107,574.145,569.978,0.0
